NORAD_CAT_ID,OBJECT_NAME,OBJECT_TYPE,EPOCH,MEAN_MOTION,ECCENTRICITY,INCLINATION,RA_OF_ASC_NODE,ARG_OF_PERICENTER,MEAN_ANOMALY,BSTAR,MEAN_MOTION_DOT,MEAN_MOTION_DDOT,TLE_LINE0,TLE_LINE1,TLE_LINE2,SEMIMAJOR_AXIS,PERIOD,APOGEE,PERIGEE,DECAYED
50161.0,STARLINK-3304,PAYLOAD,2022-09-17 05:08:53,15.08830746,0.0001878,53.2174,198.0115,44.4233,315.691,1.8867e-05,1.2e-07,0.0,0 STARLINK-3304,1 50161U 21125F   22260.21450347  .00000012  00000-0  18867-4 0  9999,2 50161  53.2174 198.0115 0001878  44.4233 315.6910 15.08830746 44809,6917.909000000002,95.438,541.073,538.474,0.0
50161.0,STARLINK-3304,PAYLOAD,2022-09-17 22:38:08,15.0882767,0.0001943,53.217,194.7404,46.4887,313.6266,-1.2039e-06,-3.07e-06,0.0,0 STARLINK-3304,1 50161U 21125F   22260.94314959 -.00000307  00000-0 -12039-5 0  9992,2 50161  53.2170 194.7404 0001943  46.4887 313.6266 15.08827670 44915,6917.918000000002,95.438,541.127,538.439,0.0
50161.0,STARLINK-3304,PAYLOAD,2022-09-18 12:56:35,15.08836227,0.0001911,53.2168,192.0652,47.5851,312.5303,0.00010457,1.376e-05,0.0,0 STARLINK-3304,1 50161U 21125F   22261.53930344  .00001376  00000-0  10457-3 0  9995,2 50161  53.2168 192.0652 0001911  47.5851 312.5303 15.08836227 44521,6917.892,95.438,541.0790000000002,538.435,0.0
50161.0,STARLINK-3304,PAYLOAD,2022-09-19 01:39:40,15.08842573,0.0001918,53.2167,189.6863,43.8346,316.2798,0.00015244,2.139e-05,0.0,0 STARLINK-3304,1 50161U 21125F   22262.06921708  .00002139  00000-0  15244-3 0  9995,2 50161  53.2167 189.6863 0001918  43.8346 316.2798 15.08842573 44600,6917.873000000001,95.437,541.064,538.411,0.0
50161.0,STARLINK-3304,PAYLOAD,2022-09-19 12:47:22,15.08842815,0.0001878,53.218,187.6054,41.0998,319.0135,9.4805e-05,1.221e-05,0.0,0 STARLINK-3304,1 50161U 21125F   22262.53289805  .00001221  00000-0  94805-4 0  9994,2 50161  53.2180 187.6054 0001878  41.0998 319.0135 15.08842815 45159,6917.871999999999,95.437,541.036,538.438,0.0
50161.0,STARLINK-3304,PAYLOAD,2022-09-19 19:08:55,15.08815071,0.0001999,53.2185,186.4169,40.4823,319.6318,0.00030672,4.593e-05,0.0,0 STARLINK-3304,1 50161U 21125F   22262.79786545  .00004593  00000-0  30672-3 0  9991,2 50161  53.2185 186.4169 0001999  40.4823 319.6318 15.08815071 45199,6917.956999999999,95.439,541.2040000000002,538.439,0.0
50161.0,STARLINK-3304,PAYLOAD,2022-09-20 04:41:13,15.08844753,0.0001692,53.2188,184.6306,48.3481,311.7656,2.5895e-05,1.24e-06,0.0,0 STARLINK-3304,1 50161U 21125F   22263.19529923  .00000124  00000-0  25895-4 0  9999,2 50161  53.2188 184.6306 0001692  48.3481 311.7656 15.08844753 44772,6917.866,95.437,540.901,538.56,0.0
50161.0,STARLINK-3304,PAYLOAD,2022-09-21 04:32:00,15.08844705,0.0001811999999999,53.2169,180.1688,50.5323,309.5829,-4.8079e-05,-1.053e-05,0.0,0 STARLINK-3304,1 50161U 21125F   22264.18889982 -.00001053  00000-0 -48079-4 0  9996,2 50161  53.2169 180.1688 0001812  50.5323 309.5829 15.08844705 45404,6917.866,95.437,540.985,538.477,0.0
50161.0,STARLINK-3304,PAYLOAD,2022-09-22 02:47:26,15.08827728,0.0001911,53.2173,176.0071,45.795,314.3199,-6.1858e-05,-1.272e-05,0.0,0 STARLINK-3304,1 50161U 21125F   22265.11627495 -.00001272  00000-0 -61858-4 0  9992,2 50161  53.2173 176.0071 0001911  45.7950 314.3199 15.08827728 45063,6917.918000000002,95.438,541.105,538.461,0.0
50161.0,STARLINK-3304,PAYLOAD,2022-09-22 10:44:21,15.08828108,0.0001871,53.217,174.5209,42.8677,317.2461,-1.7756e-05,-5.71e-06,0.0,0 STARLINK-3304,1 50161U 21125F   22265.44747526 -.00000571  00000-0 -17756-4 0  9995,2 50161  53.2170 174.5209 0001871  42.8677 317.2461 15.08828108 45590,6917.917,95.438,541.076,538.487,0.0
50161.0,STARLINK-3304,PAYLOAD,2022-09-22 21:52:03,15.08837226,0.0001764,53.2163,172.4394,43.9628,316.1505,-2.9591e-05,-7.59e-06,0.0,0 STARLINK-3304,1 50161U 21125F   22265.91115316 -.00000759  00000-0 -29591-4 0  9991,2 50161  53.2163 172.4394 0001764  43.9628 316.1505 15.08837226 45669,6917.889,95.438,540.974,538.534,0.0
50161.0,STARLINK-3304,PAYLOAD,2022-09-23 04:13:35,15.08841491,0.000192,53.2171,171.2497,46.3312,313.7839,3.5079e-05,2.7000000000000004e-06,0.0,0 STARLINK-3304,1 50161U 21125F   22266.17610928  .00000270  00000-0  35079-4 0  9993,2 50161  53.2171 171.2497 0001920  46.3312 313.7839 15.08841491 45224,6917.876,95.437,541.069,538.413,0.0
50161.0,STARLINK-3304,PAYLOAD,2022-09-24 00:53:36,15.08834592,0.0001937,53.2173,167.3839,43.6743,316.4402,0.00010471,1.378e-05,0.0,0 STARLINK-3304,1 50161U 21125F   22267.03723320  .00001378  00000-0  10471-3 0  9998,2 50161  53.2173 167.3839 0001937  43.6743 316.4402 15.08834592 45835,6917.897,95.438,541.102,538.422,0.0
50161.0,STARLINK-3304,PAYLOAD,2022-09-25 02:19:46,15.08850345,0.0001883,53.217,162.6256,46.785,313.3299,7.3216e-05,8.78e-06,0.0,0 STARLINK-3304,1 50161U 21125F   22268.09706292  .00000878  00000-0  73216-4 0  9995,2 50161  53.2170 162.6256 0001883  46.7850 313.3299 15.08850345 45997,6917.849,95.437,541.016,538.411,0.0
50161.0,STARLINK-3304,PAYLOAD,2022-09-26 00:35:10,15.08839509,0.0001811999999999,53.2168,158.4619,47.3569,312.7575,-1.0542e-05,-4.56e-06,0.0,0 STARLINK-3304,1 50161U 21125F   22269.02442799 -.00000456  00000-0 -10542-4 0  9995,2 50161  53.2168 158.4619 0001812  47.3569 312.7575 15.08839509 45658,6917.882,95.438,541.0,538.493,0.0
50161.0,STARLINK-3304,PAYLOAD,2022-09-26 10:07:29,15.08840755,0.0001846,53.2167,156.678,47.9868,312.1281,-3.5031e-05,-8.46e-06,0.0,0 STARLINK-3304,1 50161U 21125F   22269.42186756 -.00000846  00000-0 -35031-4 0  9990,2 50161  53.2167 156.6780 0001846  47.9868 312.1281 15.08840755 46194,6917.878000000002,95.438,541.02,538.466,0.0
50161.0,STARLINK-3304,PAYLOAD,2022-09-27 03:36:44,15.08839806,0.000195,53.217,153.4065,50.0978,310.0185,-3.1832e-05,-7.95e-06,0.0,0 STARLINK-3304,1 50161U 21125F   22270.15050995 -.00000795  00000-0 -31832-4 0  9995,2 50161  53.2170 153.4065 0001950  50.0978 310.0185 15.08839806 45826,6917.880999999999,95.438,541.095,538.3969999999998,0.0
50161.0,STARLINK-3304,PAYLOAD,2022-09-27 22:41:21,15.08836862,0.0001914,53.2172,149.8391,46.7976,313.3175,6.1837e-05,6.96e-06,0.0,0 STARLINK-3304,1 50161U 21125F   22270.94538810  .00000696  00000-0  61837-4 0  9995,2 50161  53.2172 149.8391 0001914  46.7976 313.3175 15.08836862 46420,6917.89,95.438,541.0790000000002,538.431,0.0
50161.0,STARLINK-3304,PAYLOAD,2022-09-28 16:10:35,15.08850511,0.0001535,53.2162,146.5687,48.6195,311.4929,0.00011863,1.601e-05,0.0,0 STARLINK-3304,1 50161U 21125F   22271.67401655  .00001601  00000-0  11863-3 0  9992,2 50161  53.2162 146.5687 0001535  48.6195 311.4929 15.08850511 46056,6917.848000000001,95.437,540.775,538.651,0.0
50161.0,STARLINK-3304,PAYLOAD,2022-09-28 20:56:44,15.08827226,0.0001460999999999,53.2161,145.6771,52.6441,307.4684,0.00028117,4.188e-05,0.0,0 STARLINK-3304,1 50161U 21125F   22271.87274185  .00004188  00000-0  28117-3 0  9993,2 50161  53.2161 145.6771 0001461  52.6441 307.4684 15.08827226 46562,6917.919,95.438,540.795,538.774,0.0
50161.0,STARLINK-3304,PAYLOAD,2022-09-29 00:07:32,15.08832335,0.0001578,53.2163,145.0819,47.0618,313.0507,-3.5551e-05,-8.54e-06,0.0,0 STARLINK-3304,1 50161U 21125F   22272.00523217 -.00000854  00000-0 -35551-4 0  9991,2 50161  53.2163 145.0819 0001578  47.0618 313.0507 15.08832335 46108,6917.904,95.438,540.86,538.677,0.0
50161.0,STARLINK-3304,PAYLOAD,2022-09-29 08:04:28,15.08823893,0.0001989,53.2169,143.5953,43.3678,316.7471,-9.7595e-05,-1.84e-05,0.0,0 STARLINK-3304,1 50161U 21125F   22272.33644332 -.00001840  00000-0 -97595-4 0  9991,2 50161  53.2169 143.5953 0001989  43.3678 316.7471 15.08823893 46634,6917.93,95.439,541.1709999999998,538.419,0.0
50161.0,STARLINK-3304,PAYLOAD,2022-09-29 20:47:34,15.08826417,0.000193,53.2177,141.2174,44.7371,315.3777,-0.00012481,-2.273e-05,0.0,0 STARLINK-3304,1 50161U 21125F   22272.86636734 -.00002273  00000-0 -12481-3 0  9997,2 50161  53.2177 141.2174 0001930  44.7371 315.3777 15.08826417 46712,6917.922,95.438,541.122,538.452,0.0
50161.0,STARLINK-3304,PAYLOAD,2022-09-30 07:55:16,15.08825456,0.0002026999999999,53.2176,139.1343,42.6176,317.4973,-7.605e-05,-1.498e-05,0.0,0 STARLINK-3304,1 50161U 21125F   22273.33005067 -.00001498  00000-0 -76050-4 0  9990,2 50161  53.2176 139.1343 0002027  42.6176 317.4973 15.08825456 46783,6917.925,95.438,541.192,538.388,0.0
50161.0,STARLINK-3304,PAYLOAD,2022-09-30 14:16:47,15.08858928,0.0001565999999999,53.2176,137.9452,45.746,314.366,-0.00032111,-5.398e-05,0.0,0 STARLINK-3304,1 50161U 21125F   22273.59499943 -.00005398  00000-0 -32111-3 0  9990,2 50161  53.2176 137.9452 0001566  45.7460 314.3660 15.08858928 46348,6917.823,95.436,540.771,538.604,0.0
50161.0,STARLINK-3304,PAYLOAD,2022-09-30 20:38:21,15.08777283,0.000239,53.2175,136.7564,61.9992,298.1242,0.00086169,0.00013429,0.0,0 STARLINK-3304,1 50161U 21125F   22273.85997248  .00013429  00000-0  86169-3 0  9994,2 50161  53.2175 136.7564 0002390  61.9992 298.1242 15.08777283 46860,6918.071999999999,95.442,541.591,538.284,0.0
50161.0,STARLINK-3304,PAYLOAD,2022-10-01 07:46:02,15.08839962,0.0001911999999999,53.2174,134.6742,46.7418,313.3733,0.00024516,3.616e-05,0.0,0 STARLINK-3304,1 50161U 21125F   22274.32363460  .00003616  00000-0  24516-3 0  9995,2 50161  53.2174 134.6742 0001912  46.7418 313.3733 15.08839962 46933,6917.880999999999,95.438,541.068,538.423,0.0
50161.0,STARLINK-3304,PAYLOAD,2022-10-01 18:53:44,15.08836047,0.0001945,53.2175,132.5926,47.7426,312.3731,0.0002272,3.329e-05,0.0,0 STARLINK-3304,1 50161U 21125F   22274.78732062  .00003329  00000-0  22720-3 0  9999,2 50161  53.2175 132.5926 0001945  47.7426 312.3731 15.08836047 46524,6917.892,95.438,541.1030000000002,538.4119999999998,0.0
50161.0,STARLINK-3304,PAYLOAD,2022-10-01 20:29:07,15.08839905,0.0001934,53.2173,132.2953,47.7298,312.3858,0.00018764,2.699e-05,0.0,0 STARLINK-3304,1 50161U 21125F   22274.85356016  .00002699  00000-0  18764-3 0  9990,2 50161  53.2173 132.2953 0001934  47.7298 312.3858 15.08839905 47015,6917.880999999999,95.438,541.0840000000002,538.408,0.0
